[ {"name": "STARLINK-33605", "line1": "1 63074U 25035Y   26154.61928614  .00015295  00000+0  56551-3 0  9996", "line2": "2 63074  43.0044  21.6110 0002124 241.1634 118.9005 15.27502826 72863"}, {"name": "STARLINK-32839", "line1": "1 63077U 25037A   26155.23573018  .00010150  00000+0  85648-3 0  9998", "line2": "2 63077  70.0011 136.3336 0003791 266.2255  93.8471 14.98361349 71555"}, {"name": "STARLINK-32821", "line1": "1 63078U 25037B   26155.23557027  .00001628  00000+0  14421-3 0  9992", "line2": "2 63078  70.0011 136.3296 0003933 255.6323 104.4400 14.98337491 71548"}, {"name": "STARLINK-32817", "line1": "1 63079U 25037C   26155.27313187  .00004060  00000+0  34773-3 0  9999", "line2": "2 63079  70.0046 136.0604 0003349 229.5854 130.5013 14.98341395 71567"}, {"name": "STARLINK-32906", "line1": "1 63080U 25037D   26155.25244076  .00003304  00000+0  28449-3 0  9992", "line2": "2 63080  70.0013 136.3862 0002766 253.0445 107.0411 14.98337895 71563"}, {"name": "STARLINK-32895", "line1": "1 63081U 25037E   26155.24809664  .00001756  00000+0  15487-3 0  9999", "line2": "2 63081  70.0006 136.3748 0004327 259.6767 100.3905 14.98334422 71425"}, {"name": "STARLINK-32933", "line1": "1 63082U 25037F   26155.22323361  .00001991  00000+0  17462-3 0  9999", "line2": "2 63082  70.0012 136.2809 0003157 254.3751 105.7060 14.98326726 71503"}, {"name": "STARLINK-32932", "line1": "1 63083U 25037G   26155.22723196  .00004435  00000+0  37914-3 0  9990", "line2": "2 63083  70.0010 136.3029 0003495 265.0978  94.9782 14.98338023 71426"}, {"name": "STARLINK-32908", "line1": "1 63084U 25037H   26155.21888220  .00004555  00000+0  38919-3 0  9999", "line2": "2 63084  70.0011 136.2681 0003558 261.5997  98.4759 14.98338935 71428"}, {"name": "STARLINK-32505", "line1": "1 63085U 25037J   26155.38180566  .00085825  00000+0  71207-2 0  9991", "line2": "2 63085  70.0000 136.0344 0004382 327.6743  32.4147 14.98284965 71534"}, {"name": "STARLINK-32914", "line1": "1 63086U 25037K   26155.22305857  .00003835  00000+0  32898-3 0  9992", "line2": "2 63086  70.0012 136.2808 0003225 258.0700 102.0098 14.98336148 71563"}, {"name": "STARLINK-32918", "line1": "1 63087U 25037L   26155.23975025  .00003938  00000+0  33759-3 0  9995", "line2": "2 63087  70.0010 136.3437 0004130 256.6657 103.4041 14.98339662 71659"}, {"name": "STARLINK-32912", "line1": "1 63088U 25037M   26155.26078329 -.00002433  00000+0 -19629-3 0  9991", "line2": "2 63088  70.0024 136.0247 0004216 221.4871 138.5969 14.98305477 71671"}, {"name": "STARLINK-32910", "line1": "1 63089U 25037N   26155.22739889  .00004037  00000+0  34599-3 0  9996", "line2": "2 63089  70.0015 136.2971 0003402 255.2692 104.8090 14.98322922 71563"}, {"name": "STARLINK-32903", "line1": "1 63090U 25037P   26155.25641692 -.00001090  00000+0 -83548-4 0  9992", "line2": "2 63090  70.0010 136.0061 0003471 256.9895 103.0877 14.98331217 71434"}, {"name": "STARLINK-32925", "line1": "1 63091U 25037Q   26155.26060539  .00008782  00000+0  74255-3 0  9996", "line2": "2 63091  70.0003 136.0135 0003818 268.5333  91.5389 14.98345995 71516"}, {"name": "STARLINK-32924", "line1": "1 63092U 25037R   26155.26894394  .00004732  00000+0  40399-3 0  9994", "line2": "2 63092  70.0019 136.0473 0003553 256.9477 103.1286 14.98338589 71578"}, {"name": "STARLINK-32900", "line1": "1 63093U 25037S   26155.21472447  .00007325  00000+0  62089-3 0  9992", "line2": "2 63093  70.0001 136.2537 0004150 268.8911  91.1773 14.98338887 71424"}, {"name": "STARLINK-32927", "line1": "1 63094U 25037T   26155.24392415  .00004721  00000+0  40303-3 0  9994", "line2": "2 63094  70.0013 136.3615 0004096 256.5938 103.4765 14.98341407 71518"}, {"name": "STARLINK-32907", "line1": "1 63095U 25037U   26155.23140440  .00004208  00000+0  36016-3 0  9999", "line2": "2 63095  70.0010 136.3116 0003759 256.7604 103.3136 14.98338616 71518"}, {"name": "STARLINK-32911", "line1": "1 63096U 25037V   26155.25228757  .00002277  00000+0  19859-3 0  9990", "line2": "2 63096  70.0013 136.3857 0002361 251.3705 108.7198 14.98326688 71552"}, {"name": "STARLINK-32923", "line1": "1 63097U 25037W   26155.26478520  .00007497  00000+0  63511-3 0  9990", "line2": "2 63097  69.9997 136.0293 0003673 278.3294  81.7449 14.98350131 71572"}, {"name": "STARLINK-32913", "line1": "1 63098U 25037X   26155.21053811 -.00004060  00000+0 -33275-3 0  9997", "line2": "2 63098  70.0004 136.2349 0003887 265.0189  95.0526 14.98314348 71576"}, {"name": "STARLINK-11629 [DTC]", "line1": "1 63104U 25039A   26155.77051380  .00272855  00000+0  20181-2 0  9995", "line2": "2 63104  42.9996  71.7182 0004197 316.5705  43.4832 15.71333959 73313"}, {"name": "STARLINK-11624 [DTC]", "line1": "1 63105U 25039B   26154.92372442  .00197858  00000+0  15040-2 0  9994", "line2": "2 63105  43.0004  77.4334 0001682 200.4196 159.6605 15.70919334 73177"}, {"name": "STARLINK-11584 [DTC]", "line1": "1 63106U 25039C   26155.24073163  .00191510  00000+0  14589-2 0  9995", "line2": "2 63106  43.0011  75.5088 0002247 250.6310 109.4315 15.70886595 73223"}, {"name": "STARLINK-11627 [DTC]", "line1": "1 63107U 25039D   26153.93720541  .00145257  00000+0  11130-2 0  9995", "line2": "2 63107  43.0001  82.9161 0001991 263.8501  96.2140 15.70899321 73028"}, {"name": "STARLINK-11632 [DTC]", "line1": "1 63108U 25039E   26155.66988572  .00200129  00000+0  15032-2 0  9993", "line2": "2 63108  43.0004  72.6961 0003691 203.0740 156.9962 15.71192006 73298"}, {"name": "STARLINK-11625 [DTC]", "line1": "1 63109U 25039F   26155.73877508  .00155815  00000+0  11939-2 0  9991", "line2": "2 63109  42.9994  72.3494 0002493 210.6176 149.4546 15.70863445 73307"}, {"name": "STARLINK-11601 [DTC]", "line1": "1 63110U 25039G   26153.94251321  .00077178  00000+0  59831-3 0  9992", "line2": "2 63110  43.0013  82.9573 0001988 240.8667 119.2002 15.70881890 73021"}, {"name": "STARLINK-11630 [DTC]", "line1": "1 63111U 25039H   26155.93483726  .00187169  00000+0  14060-2 0  9996", "line2": "2 63111  43.0004  71.2483 0002615 234.3355 125.7269 15.71234403 73337"}, {"name": "STARLINK-11590 [DTC]", "line1": "1 63112U 25039J   26155.69112379  .00180119  00000+0  13732-2 0  9996", "line2": "2 63112  43.0008  72.8701 0001932 268.1919  91.8727 15.70905363 73290"}, {"name": "STARLINK-11598 [DTC]", "line1": "1 63113U 25039K   26154.83799466  .00007212  00000+0  59641-4 0  9993", "line2": "2 63113  43.0019  77.6347 0002278 273.1512  86.9095 15.70844056 73161"}, {"name": "STARLINK-11600 [DTC]", "line1": "1 63114U 25039L   26154.94923227  .00076794  00000+0  59568-3 0  9998", "line2": "2 63114  42.9997  76.7365 0002002 238.9162 121.1509 15.70869768 73181"}, {"name": "STARLINK-11597 [DTC]", "line1": "1 63115U 25039M   26155.76519835  .00174216  00000+0  13320-2 0  9999", "line2": "2 63115  43.0001  71.6731 0001705 258.4875 101.5801 15.70856794 73315"}, {"name": "STARLINK-11591 [DTC]", "line1": "1 63116U 25039N   26154.66685185 -.00077890  00000+0 -60843-3 0  9995", "line2": "2 63116  43.0006  78.2155 0001696 266.4157  25.0134 15.70869833  5991"}, {"name": "STARLINK-32955", "line1": "1 63117U 25039P   26155.91672454  .00229381  00000+0  25308-2 0  9998", "line2": "2 63117  42.9900 223.4994 0022480  42.7272 130.3495 15.61274683  5987"}, {"name": "STARLINK-32945", "line1": "1 63118U 25039Q   26152.35141659  .00017372  00000+0  63944-3 0  9996", "line2": "2 63118  43.0004 260.1413 0001194 270.3246  89.7469 15.27573707 70866"}, {"name": "STARLINK-32941", "line1": "1 63119U 25039R   26152.28989873  .00022336  00000+0  81838-3 0  9995", "line2": "2 63119  42.9981 249.2780 0001446 159.0139 201.0772 15.27594307 70986"}, {"name": "STARLINK-32942", "line1": "1 63120U 25039S   26152.61938223  .00027507  00000+0  10049-2 0  9997", "line2": "2 63120  43.0034 258.7138 0001925 279.9544  80.1090 15.27593611 70903"}, {"name": "STARLINK-32947", "line1": "1 63121U 25039T   26155.13733123  .00018721  00000+0  68720-3 0  9998", "line2": "2 63121  42.9986 244.0686 0001332 291.6926  68.3784 15.27622426 71299"}, {"name": "STARLINK-32961", "line1": "1 63122U 25039U   26155.70411055  .00018811  00000+0  69021-3 0  9994", "line2": "2 63122  43.0016 241.4499 0001670 281.4735  78.5929 15.27634988 71378"}, {"name": "STARLINK-32948", "line1": "1 63123U 25039V   26152.62324037  .00017543  00000+0  64526-3 0  9992", "line2": "2 63123  42.9998 258.7405 0001259 238.6528 121.4201 15.27591573 70902"}, {"name": "STARLINK-32957", "line1": "1 63124U 25039W   26152.63739321  .00026399  00000+0  96558-3 0  9999", "line2": "2 63124  43.0004 258.8547 0002198  23.8294 336.2659 15.27574040 70901"}, {"name": "STARLINK-11609 [DTC]", "line1": "1 63132U 25043A   26155.75241988  .00182314  00000+0  13913-2 0  9999", "line2": "2 63132  42.9991  86.0377 0001771 221.2146 138.8588 15.70875656 73153"}, {"name": "STARLINK-11604 [DTC]", "line1": "1 63133U 25043B   26155.26499330  .00186601  00000+0  14238-2 0  9996", "line2": "2 63133  43.0004  89.2769 0002016 259.8387 100.2254 15.70864438 72965"}, {"name": "STARLINK-11605 [DTC]", "line1": "1 63134U 25043C   26154.80399513  .00181146  00000+0  13826-2 0  9999", "line2": "2 63134  42.9993  91.8231 0002829 208.7487 151.3225 15.70872949 72893"}, {"name": "STARLINK-11610 [DTC]", "line1": "1 63135U 25043D   26154.87287251  .00191540  00000+0  14581-2 0  9990", "line2": "2 63135  43.0009  91.4899 0002323 276.1804  83.8799 15.70904103 72906"}, {"name": "STARLINK-11613 [DTC]", "line1": "1 63136U 25043E   26155.70476805  .00236237  00000+0  17802-2 0  9991", "line2": "2 63136  42.9995  86.5481 0002685 280.6432  79.4133 15.71006080 73158"}, {"name": "STARLINK-11616 [DTC]", "line1": "1 63137U 25043F   26154.83130605  .00178780  00000+0  13635-2 0  9998", "line2": "2 63137  42.9998  91.1519 0001902 234.2217 125.8474 15.70901147 73020"}, {"name": "STARLINK-11611 [DTC]", "line1": "1 63138U 25043G   26155.67290932  .00173336  00000+0  13229-2 0  9993", "line2": "2 63138  42.9988  86.2900 0001869 212.1822 147.8932 15.70902436 73157"}]